{
  "type": "FeatureCollection",
  "features": [
    {
      "type": "Feature",
      "properties": {
        "name": "مستطیل 414"
      },
      "geometry": {
        "type": "Polygon",
        "coordinates": [
          [
            [
              50.957336,
              35.503933
            ],
            [
              50.957336,
              35.890099
            ],
            [
              51.784058,
              35.890099
            ],
            [
              51.784058,
              35.503933
            ],
            [
              50.957336,
              35.503933
            ]
          ]
        ]
      }
    }
  ]
}